93P/Lovas,e,12.2004,339.6202,74.8921,4.385498,0.1073188,0.61200257,110.7669,12/28.0/2019,2000,g  9.0,4.0
# From MPEC 2013-O31
94P/Russell,e,6.1878,70.8608,92.5340,3.507038,0.1500698,0.36469139,173.7116,12/28.0/2019,2000,g  9.0,4.0
# From MPC 75717
95P/Chiron,e,6.9425,209.2317,339.8195,13.67950,0.0194804,0.37941325,169.8112,12/28.0/2019,2000,g  6.5,2.0
# From MPEC 2017-T14
96P/Machholz,e,58.6351,94.3339,14.6297,3.029664,0.1869014,0.96058922,147.8927,12/28.0/2019,2000,g  9.0,4.0
# From MPC 77020
97P/Metcalf-Brewington,e,17.8524,184.5883,228.8844,4.790749,0.0939937,0.46094404,286.7745,12/28.0/2019,2000,g  5.5,6.0
# From MPEC 2013-H38
98P/Takamizawa,e,10.5612,114.7102,157.8998,3.799506,0.1330802,0.56219526,310.2400,12/28.0/2019,2000,g  9.0,8.0
# From MPC 75718
99P/Kowal,e,4.3377,28.1347,174.8705,6.115818,0.0651662,0.23058403,305.5169,12/28.0/2019,2000,g  4.5,6.0
# From MPEC 2013-O31
100P/Hartley,e,25.5770,37.7218,182.0000,3.431281,0.1550671,0.41280139,211.6593,12/28.0/2019,2000,g  9.0,4.0
# From MPC115887
101P/Chernykh,e,5.0528,116.2320,277.6953,5.796419,0.0706260,0.59545472,358.9039,12/28.0/2019,2000,g 12.0,4.8
# From MPC 86232
102P/Shoemaker,e,25.8702,339.4189,20.5555,3.814609,0.1322906,0.45773128,308.2141,12/28.0/2019,2000,g  6.5,8.0
# From MPEC 2018-HA5
103P/Hartley,e,13.5915,219.7276,181.3079,3.476935,0.1520229,0.69282635,149.3114,12/28.0/2019,2000,g  8.5,8.0
# From MPC100283
104P/Kowal,e,5.9079,211.7878,223.1485,3.194644,0.1726117,0.67468365,232.3449,12/28.0/2019,2000,g 16.0,4.0
# From MPC109147
105P/Singer Brewster,e,9.1745,192.4198,46.4533,3.466099,0.1527364,0.41006109,77.1077,12/28.0/2019,2000,g 11.5,6.0
# From MPC 92276
106P/Schuster,e,19.6236,49.1629,353.5527,3.761103,0.1351236,0.59526711,279.0253,12/28.0/2019,2000,g 14.0,4.8
# From MPEC 2015-M77
107P/Wilson-Harrington,e,2.7983,266.8190,95.3737,2.626174,0.2315895,0.63104181,135.1107,12/28.0/2019,2000,g  9.0,4.0
# From MPC 89313
108P/Ciffreo,e,11.5326,50.8053,354.1293,3.738254,0.1363644,0.55908784,275.3446,12/28.0/2019,2000,g  8.0,12.0
# From  105, 420
109P/Swift-Tuttle,e,113.8453,139.1516,152.8800,26.09829,0.0073924,0.96329624,73.1151,12/28.0/2019,2000,g  4.0,6.0
# From MPC 92276
110P/Hartley,e,11.7073,287.5336,167.4046,3.601355,0.1442132,0.31759965,264.7585,12/28.0/2019,2000,g  1.0,12.0
# From MPC 75718
111P/Helin-Roman-Crockett,e,4.2275,89.7627,1.2737,4.143438,0.1168592,0.10534873,297.1752,12/28.0/2019,2000,g  5.0,8.0
# From MPC118097
112P/Urata-Niijima,e,24.1910,31.8499,21.4996,3.525967,0.1488630,0.58972278,353.7529,12/28.0/2019,2000,g 14.0,6.0
# From MPEC 2015-E14
113P/Spitaler,e,5.1320,307.9026,115.0650,3.672394,0.1400490,0.43983417,237.8926,12/28.0/2019,2000,g 13.5,4.0
# From MPEC 2019-TG9
114P/Wiseman-Skiff,e,18.2724,271.0597,172.8141,3.547350,0.1475190,0.55476555,357.4795,12/28.0/2019,2000,g 11.5,6.0
# From MPC105241
115P/Maury,e,11.6747,176.0372,121.0367,4.273625,0.1115602,0.51875683,336.0306,12/28.0/2019,2000,g 10.5,6.0
# From MPC106348
116P/Wild,e,3.6048,21.0012,173.4027,3.487804,0.1513129,0.37112121,218.9986,12/28.0/2019,2000,g  2.5,10.0
# From MPEC 2015-S97
117P/Helin-Roman-Alu,e,8.7011,58.8637,222.6485,4.088180,0.1192365,0.25567612,250.1228,12/28.0/2019,2000,g  9.0,4.0
# From MPC 95735
118P/Shoemaker-Levy,e,8.8733,146.3921,307.5744,3.425837,0.1554369,0.44899112,196.5762,12/28.0/2019,2000,g 12.0,4.0
# From MPC 84628
119P/Parker-Hartley,e,7.1774,105.4105,321.4111,3.770603,0.1346133,0.43918202,238.2072,12/28.0/2019,2000,g  3.5,8.0
# From MPC 80901
120P/Mueller,e,8.4762,358.7977,36.1055,3.973713,0.1244255,0.37565004,298.4218,12/28.0/2019,2000,g 12.0,4.0
# From MPC100283
121P/Shoemaker-Holt,e,20.1646,94.1430,11.2114,4.588018,0.1002920,0.18446674,231.8331,12/28.0/2019,2000,g  6.5,8.0
# From MPC 75718
122P/de Vico,e,84.5882,79.5044,13.0283,17.63758,0.0133059,0.96231886,117.9341,12/28.0/2019,2000,g  7.5,5.2
# From MPC114608
123P/West-Hartley,e,15.3563,46.4984,103.0726,3.859415,0.1299936,0.44873406,42.3433,12/28.0/2019,2000,g  4.0,10.0
# From MPC118097
124P/Mrkos,e,31.5121,0.3718,183.8503,3.318259,0.1630567,0.50349409,340.2895,12/28.0/2019,2000,g 13.5,2.8
# From MPEC 2015-M77
125P/Spacewatch,e,9.9881,153.1699,87.1947,3.124530,0.1784543,0.51328122,86.9259,12/28.0/2019,2000,g  9.0,4.0
# From MPC 66205
126P/IRAS,e,45.8340,357.8371,356.4940,5.642732,0.0735309,0.69580409,265.4535,12/28.0/2019,2000,g  9.0,4.0
# From MPC 84321
127P/Holt-Olmstead,e,14.2994,13.6501,6.5762,3.449035,0.1538713,0.35982028,212.6473,12/28.0/2019,2000,g 11.0,6.0
# From MPC 89014
128P/Shoemaker-Holt,e,4.3653,214.2929,210.4321,4.495100,0.1034177,0.32033300,111.9253,12/28.0/2019,2000,g  8.5,4.0
# From MPEC 2019-TG9
129P/Shoemaker-Levy,e,3.4435,184.8930,308.3694,4.279869,0.1113162,0.08394231,240.3003,12/28.0/2019,2000,g 11.0,4.0
# From MPC 78188
130P/McNaught-Hughes,e,6.0646,70.2526,245.9417,3.383799,0.1583424,0.46118434,111.6326,12/28.0/2019,2000,g 10.0,6.0
# From MPC102101
131P/Mueller,e,7.3531,214.1852,179.0602,3.681933,0.1395052,0.34349560,47.1285,12/28.0/2019,2000,g 11.0,4.0
# From MPC 92985
132P/Helin-Roman-Alu,e,5.3804,174.2452,216.4083,3.878202,0.1290501,0.56601148,271.4634,12/28.0/2019,2000,g 11.0,6.0
# From MPC 94676
133P/Elst-Pizarro,e,1.3892,160.1325,131.6113,3.162895,0.1752173,0.15724814,81.0903,12/28.0/2019,2000,g 15.4,2.0
# From MPC 89012
134P/Kowal-Vavrova,e,4.3464,202.0844,18.8488,6.255619,0.0629939,0.58721157,128.9138,12/28.0/2019,2000,g 11.5,4.0
# From MPEC 2015-E14
135P/Shoemaker-Levy,e,6.0617,213.0602,22.2090,3.804697,0.1328079,0.29563979,249.6636,12/28.0/2019,2000,g  9.0,4.0
# From MPC101100
136P/Mueller,e,9.4225,137.4392,224.9102,4.196599,0.1146457,0.29181476,149.7494,12/28.0/2019,2000,g 11.0,4.0
# From MPEC 2019-VB6
137P/Shoemaker-Levy,e,4.8535,233.0759,141.0101,4.520515,0.1025468,0.57308172,38.9264,12/28.0/2019,2000,g 11.0,4.0
# From MPEC 2016-U66
138P/Shoemaker-Levy,e,10.0902,309.3293,95.6043,3.624006,0.1428633,0.53017590,34.1803,12/28.0/2019,2000,g 15.0,6.0
# From MPC108598
139P/Vaisala-Oterma,e,2.3333,242.2049,165.8560,4.526233,0.1023525,0.24618203,76.5876,12/28.0/2019,2000,g  9.5,4.0
# From MPEC 2015-E14
140P/Bowell-Skiff,e,3.8249,343.3395,172.9442,6.439392,0.0603166,0.69110363,96.7297,12/28.0/2019,2000,g 11.5,6.0
# From MPC105242
141P/Machholz,e,13.9616,241.8740,153.5630,3.055690,0.1845186,0.73604067,294.8094,12/28.0/2019,2000,g 12.0,12.0
# From MPC 95735
141P-H/Machholz,e,12.8431,246.0900,149.4500,3.008012,0.1889230,0.74682218,359.9270,08/24.0/2015,2000,g 18.5,4.0
# From MPC 71683
142P/Ge-Wang,e,12.2410,176.1179,174.0574,4.998496,0.0881952,0.49825798,315.6959,12/28.0/2019,2000,g  9.0,4.0
# From MPC 94676
143P/Kowal-Mrkos,e,4.6971,245.2887,320.5670,4.289397,0.1109455,0.41060111,66.6455,12/28.0/2019,2000,g  9.0,4.0
# From MPC104795
144P/Kushida,e,4.0764,244.7779,215.2955,3.805385,0.1327719,0.64147751,161.4815,12/28.0/2019,2000,g  8.5,8.0
# From MPC108598
145P/Shoemaker-Levy,e,11.2631,26.7945,10.2874,4.141285,0.1169503,0.54070891,99.2021,12/28.0/2019,2000,g 13.5,4.0
# From MPC100284
146P/Shoemaker-LINEAR,e,23.0778,53.4370,316.9063,4.034225,0.1216365,0.64625312,155.2024,12/28.0/2019,2000,g 15.0,4.0
# From MPC 75720
147P/Kushida-Muramatsu,e,2.3803,93.3312,351.5346,3.906449,0.1276529,0.25546855,179.4305,12/28.0/2019,2000,g 14.0,4.0
# From MPEC 2014-R70
148P/Anderson-LINEAR,e,3.6867,89.7060,6.4991,3.658103,0.1408706,0.54446750,233.1042,12/28.0/2019,2000,g  9.0,4.0
# From MPC 75720
149P/Mueller,e,29.7729,145.2057,43.8929,4.320445,0.1097517,0.39033761,34.4311,12/28.0/2019,2000,g  8.0,8.0
# From MPC 75720
150P/LONEOS,e,18.5080,272.4073,245.5982,3.880357,0.1289427,0.54648058,161.4371,12/28.0/2019,2000,g 13.5,4.0
# From MPEC 2015-Q71
151P/Helin,e,4.7254,143.1450,216.0677,5.765919,0.0711871,0.57261451,109.7304,12/28.0/2019,2000,g 10.0,6.0
# From MPC 79346
152P/Helin-Lawrence,e,9.8799,91.8706,163.7551,4.482705,0.1038470,0.30918361,282.4454,12/28.0/2019,2000,g 11.5,4.0
# From MPC 46101
153P/Ikeya-Zhang,e,27.6973,93.0372,35.2156,50.99605,0.0027064,0.98969943,0.0000,03/13.0572/2002,2000,g  9.0,4.0
# From MPC 87068
154P/Brewington,e,17.6267,342.9998,47.8716,4.804081,0.0936027,0.67491446,207.2864,12/28.0/2019,2000,g  2.5,12.0
# From MPC118098
155P/Shoemaker,e,6.3959,97.1978,14.6655,6.589670,0.0582651,0.72656565,2.5044,12/28.0/2019,2000,g 10.0,4.8
# From MPC105242
156P/Russell-LINEAR,e,17.2705,35.4396,0.3278,3.463278,0.1529231,0.61512036,310.1845,12/28.0/2019,2000,g 15.5,2.0
# From MPC104795
157P/Tritton,e,10.0784,290.9134,156.5249,3.353682,0.1604801,0.63107642,207.3048,12/28.0/2019,2000,g 10.0,4.0
# From MPEC 2016-K18
158P/Kowal-LINEAR,e,7.8941,136.1161,217.1285,4.836145,0.0926734,0.01469466,269.1166,12/28.0/2019,2000,g  9.0,4.0
# From MPEC 2019-VB6
159P/LONEOS,e,23.4608,55.0146,4.6671,5.858465,0.0695070,0.38144093,40.6461,12/28.0/2019,2000,g 10.0,4.0
# From MPEC 2019-TG9
160P/LINEAR,e,15.6158,333.3689,12.6468,3.771463,0.1345672,0.52608583,3.4612,12/28.0/2019,2000,g 15.5,2.0
# From MPC 75721
161P/Hartley-IRAS,e,95.7158,1.4230,46.9129,7.727413,0.0458831,0.83450131,244.0025,12/28.0/2019,2000,g  8.5,6.0
# From MPEC 2017-L52
162P/Siding Spring,e,27.5655,30.9595,357.0970,3.091190,0.1813491,0.58311680,297.2952,12/28.0/2019,2000,g  9.0,4.0
# From MPC102101
163P/NEAT,e,12.7079,102.0916,349.6892,3.770770,0.1346043,0.45195032,19.4893,12/28.0/2019,2000,g 14.5,4.0
# From MPC106349
164P/Christensen,e,16.2533,88.3062,325.8792,3.659010,0.1408182,0.53962048,81.0675,12/28.0/2019,2000,g 11.0,4.0
# From MPC 75721
165P/LINEAR,e,15.9006,0.7153,126.2928,17.90990,0.0130036,0.61491774,93.0853,12/28.0/2019,2000,g 11.5,2.0
# From MPC 75722
166P/NEAT,e,15.3597,64.5178,321.4930,13.83929,0.0191440,0.38149313,123.4439,12/28.0/2019,2000,g  5.5,4.0
# From MPC 75722
167P/CINEOS,e,19.1202,295.6608,344.0308,16.17699,0.0151481,0.27319409,103.2231,12/28.0/2019,2000,g  9.5,2.0
# From MPC102101
168P/Hergenrother,e,21.6114,355.4689,14.9901,3.581718,0.1454009,0.62061165,21.0605,12/28.0/2019,2000,g 15.5,4.0
# From MPEC 2015-M77
